{
  "type": "FeatureCollection",
  "features": [
    {
      "type": "Feature",
      "properties": {
        "name": "grid1",
        "origin": [
          -75.6209,
          36.5272
        ],
        "angle": 107,
        "mxc": 0.35,
        "myc": 0.276
      },
      "geometry": {
        "type": "Polygon",
        "coordinates": [
          [
            [-78.375     ,  33.125     ],
            [-77.30579217,  33.6697886 ],
            [-77.85058077,  34.73899643],
            [-78.9197886 ,  34.19420783],
            [-78.375     ,  33.125     ]
          ]
        ]
      }
    },
    {
      "type": "Feature",
      "properties": {
        "name": "grid4",
        "origin": [
          -75.6209,
          36.5272
        ],
        "angle": 107,
        "mxc": 0.35,
        "myc": 0.276
      },
      "geometry": {
        "type": "Polygon",
        "coordinates": [
          [
            [-75.6723    ,  35.2186    ],
            [-74.44095216,  35.81916847],
            [-75.0327532 ,  37.03254043],
            [-76.26410105,  36.43197196],
            [-75.6723    ,  35.2186    ]
          ]
        ]
      }
    },
    {
      "type": "Feature",
      "properties": {
        "name": "grid2",
        "origin": [
          -75.6209,
          36.5272
        ],
        "angle": 107,
        "mxc": 0.35,
        "myc": 0.276
      },
      "geometry": {
        "type": "Polygon",
        "coordinates": [
          [
            [-77.823     ,  33.6753    ],
            [-76.21918826,  34.4924829 ],
            [-76.53698161,  35.11618747],
            [-78.14079335,  34.29900457],
            [-77.823     ,  33.6753    ]
          ]
        ]
      }
    }, 
    {
      "type": "Feature",
      "properties": {
        "name": "grid3",
        "origin": [
          -75.6209,
          36.5272
        ],
        "angle": 107,
        "mxc": 0.35,
        "myc": 0.276
      },
      "geometry": {
        "type": "Polygon",
        "coordinates": [
          [
            [-76.2102    ,  34.3337    ],
            [-74.85172276,  35.51460625],
            [-76.16384081,  37.02402541],
            [-77.52231806,  35.84311916],
            [-76.2102    ,  34.3337    ]
          ]
        ]
      }
    }
   
]
}