{
  "type": "FeatureCollection",
  "features": [
    {
      "type": "Feature",
      "properties": {
        "name": "gridB0",
        "origin": [
          -75.6209,
          36.5272
        ],
        "angle": 107,
        "mxc": 0.35,
        "myc": 0.276
      },
      "geometry": {
        "type": "Polygon",
        "coordinates": [
          [
            [-79.0137    ,  33.0072    ],
            [-77.77757337,  33.66446019],
            [-78.24704493,  34.54740778],
            [-79.48317156,  33.89014759],
            [-79.0137    ,  33.0072    ]
          ]
        ]
      }
    },
    {
      "type": "Feature",
      "properties": {
        "name": "gridB0_expanded",
        "origin": [
          -75.6209,
          36.5272
        ],
        "angle": 107,
        "mxc": 0.35,
        "myc": 0.276
      },
      "geometry": {
        "type": "Polygon",
        "coordinates": [
          [
            [-79.54346856,  32.72551706],
            [-77.24780481,  33.94614313],
            [-77.71727638,  34.82909072],
            [-80.01294012,  33.60846466],
            [-79.54346856,  32.72551706]
          ]
        ]
      }
    },
    {
      "type": "Feature",
      "properties": {
        "name": "gridB1",
        "origin": [
          -75.6209,
          36.5272
        ],
        "angle": 107,
        "mxc": 0.35,
        "myc": 0.276
      },
      "geometry": {
        "type": "Polygon",
        "coordinates": [
          [
            [-77.9219    ,  33.591     ],
            [-76.31808826,  34.4081829 ],
            [-76.77207876,  35.29918942],
            [-78.3758905 ,  34.48200652],
            [-77.9219    ,  33.591     ]
          ]
        ]
      }
    },
    {
      "type": "Feature",
      "properties": {
        "name": "gridB1_expanded",
        "origin": [
          -75.6209,
          36.5272
        ],
        "angle": 107,
        "mxc": 0.35,
        "myc": 0.276
      },
      "geometry": {
        "type": "Polygon",
        "coordinates": [
          [
            [-77.9219    ,  33.591     ],
            [-76.31808826,  34.4081829 ],
            [-76.99907401,  35.74469269],
            [-78.60288575,  34.92750979],
            [-77.9219    ,  33.591     ]
          ]
        ]
      }
    },
    {
      "type": "Feature",
      "properties": {
        "name": "gridC",
        "origin": [
          -75.6209,
          36.5272
        ],
        "angle": 107,
        "mxc": 0.35,
        "myc": 0.276
      },
      "geometry": {
        "type": "Polygon",
        "coordinates": [
          [
            [-78.375     ,  33.125     ],
            [-76.94938956,  33.8513848 ],
            [-77.49417816,  34.92059263],
            [-78.9197886 ,  34.19420783],
            [-78.375     ,  33.125     ]
          ]
        ]
      }
    },
    {
      "type": "Feature",
      "properties": {
        "name": "gridC_expanded",
        "origin": [
          -75.6209,
          36.5272
        ],
        "angle": 107,
        "mxc": 0.35,
        "myc": 0.276
      },
      "geometry": {
        "type": "Polygon",
        "coordinates": [
          [
            [-78.90960391,  32.8526057 ],
            [-76.41478565,  34.1237791 ],
            [-76.95957425,  35.19298693],
            [-79.45439251,  33.92181353],
            [-78.90960391,  32.8526057 ]
          ]
        ]
      }
    },
    {
      "type": "Feature",
      "properties": {
        "name": "gridID",
        "origin": [
          -75.6209,
          36.5272
        ],
        "angle": 107,
        "mxc": 0.35,
        "myc": 0.276
      },
      "geometry": {
        "type": "Polygon",
        "coordinates": [
          [
            [-76.3001    ,  34.2551    ],
            [-74.94162276,  35.43600625],
            [-76.25374081,  36.94542541],
            [-77.61221806,  35.76451916],
            [-76.3001    ,  34.2551    ]
          ]
        ]
      }
    },
    {
      "type": "Feature",
      "properties": {
        "name": "gridID_expanded",
        "origin": [
          -75.6209,
          36.5272
        ],
        "angle": 107,
        "mxc": 0.35,
        "myc": 0.276
      },
      "geometry": {
        "type": "Polygon",
        "coordinates": [
          [
            [-76.75292575,  33.86146458],
            [-74.48879701,  35.82964167],
            [-75.80091507,  37.33906083],
            [-78.06504381,  35.37088374],
            [-76.75292575,  33.86146458]
          ]
        ]
      }
    },
    {
      "type": "Feature",
      "properties": {
        "name": "grid1",
        "origin": [
          -75.6209,
          36.5272
        ],
        "angle": 107,
        "mxc": 0.35,
        "myc": 0.276
      },
      "geometry": {
        "type": "Polygon",
        "coordinates": [
          [
            [-78.9096    ,  32.8526    ],
            [-77.16036059,  33.82221924],
            [-78.12997983,  35.57145865],
            [-79.87921924,  34.60183941],
            [-78.9096    ,  32.8526    ]
          ]
        ]
      }
    },
    {
      "type": "Feature",
      "properties": {
        "name": "grid1_expanded",
        "origin": [
          -75.6209,
          36.5272
        ],
        "angle": 107,
        "mxc": 0.35,
        "myc": 0.276
      },
      "geometry": {
        "type": "Polygon",
        "coordinates": [
          [
            [-76.75292575,  33.86146458],
            [-74.48879701,  35.82964167],
            [-75.80091507,  37.33906083],
            [-78.06504381,  35.37088374],
            [-76.75292575,  33.86146458]
          ]
        ]
      }
    } ,
    {
      "type": "Feature",
      "properties": {
        "name": "gridIE",
        "origin": [
          -75.6209,
          36.5272
        ],
        "angle": 107,
        "mxc": 0.35,
        "myc": 0.276
      },
      "geometry": {
        "type": "Polygon",
        "coordinates": [
          [
            [-77.07      ,  33.9       ],
            [-75.71053832,  34.53392739],
            [-76.04863293,  35.25897362],
            [-77.40809461,  34.62504623],
            [-77.07      ,  33.9       ]
          ]
        ]
      }
    },
    {
      "type": "Feature",
      "properties": {
        "name": "gridIE_expanded",
        "origin": [
          -75.6209,
          36.5272
        ],
        "angle": 107,
        "mxc": 0.35,
        "myc": 0.276
      },
      "geometry": {
        "type": "Polygon",
        "coordinates": [
          [
            [-77.07      ,  33.9       ],
            [-75.71053832,  34.53392739],
            [-76.04863293,  35.25897362],
            [-77.40809461,  34.62504623],
            [-77.07      ,  33.9       ]
          ]
        ]
      }
    },
    {
      "type": "Feature",
      "properties": {
        "name": "gridIE2",
        "origin": [
          -75.6209,
          36.5272
        ],
        "angle": 107,
        "mxc": 0.35,
        "myc": 0.276
      },
      "geometry": {
        "type": "Polygon",
        "coordinates": [
          [
            [-77.88567701,  33.51964356],
            [-76.07306143,  34.36488009],
            [-76.41115604,  35.08992632],
            [-78.22377162,  34.24468979],
            [-77.88567701,  33.51964356]
          ]
        ]
      }
    },
    {
      "type": "Feature",
      "properties": {
        "name": "gridIE2_expanded",
        "origin": [
          -75.6209,
          36.5272
        ],
        "angle": 107,
        "mxc": 0.35,
        "myc": 0.276
      },
      "geometry": {
        "type": "Polygon",
        "coordinates": [
          [
            [-78.3388309 ,  33.30833443],
            [-75.61990754,  34.57618922],
            [-75.95800215,  35.30123545],
            [-78.67692551,  34.03338066],
            [-78.3388309 ,  33.30833443]
          ]
        ]
      }
    },
    {
      "type": "Feature",
      "properties": {
        "name": "gridN",
        "origin": [
          -75.6209,
          36.5272
        ],
        "angle": 107,
        "mxc": 0.35,
        "myc": 0.276
      },
      "geometry": {
        "type": "Polygon",
        "coordinates": [
          [
            [-75.75      ,  35.375     ],
            [-74.51865216,  35.97556847],
            [-75.08853465,  37.14400073],
            [-76.31988249,  36.54343226],
            [-75.75      ,  35.375     ]
          ]
        ]
      }
    },
    {
      "type": "Feature",
      "properties": {
        "name": "gridN_expanded",
        "origin": [
          -75.6209,
          36.5272
        ],
        "angle": 107,
        "mxc": 0.35,
        "myc": 0.276
      },
      "geometry": {
        "type": "Polygon",
        "coordinates": [
          [
            [-75.53081443,  34.92560298],
            [-74.29946658,  35.52617145],
            [-75.19812743,  37.36869924],
            [-76.42947528,  36.76813077],
            [-75.53081443,  34.92560298]
          ]
        ]
      }
    },
    {
      "type": "Feature",
      "properties": {
        "name": "gridIE3",
        "origin": [
          -75.6209,
          36.5272
        ],
        "angle": 107,
        "mxc": 0.35,
        "myc": 0.276
      },
      "geometry": {
        "type": "Polygon",
        "coordinates": [
          [
            [-77.07      ,  33.9       ],
            [-75.71053832,  34.53392739],
            [-76.04863293,  35.25897362],
            [-77.40809461,  34.62504623],
            [-77.07      ,  33.9       ]
          ]
        ]
      }
    },
    {
      "type": "Feature",
      "properties": {
        "name": "gridIE3_expanded",
        "origin": [
          -75.6209,
          36.5272
        ],
        "angle": 107,
        "mxc": 0.35,
        "myc": 0.276
      },
      "geometry": {
        "type": "Polygon",
        "coordinates": [
          [
            [-77.61378467,  33.64642904],
            [-75.71053832,  34.53392739],
            [-76.04863293,  35.25897362],
            [-77.95187928,  34.37147527],
            [-77.61378467,  33.64642904]
          ]
        ]
      }
    }
]
}